{
    "links": {
        "self": "http://www.neowsapp.com/rest/v1/neo/54087833?api_key=iIulBulltgU6a56xZRHN4H3l9WmuAYTsLGpBGhQ2"
    },
    "id": "54087833",
    "neo_reference_id": "54087833",
    "name": "(2020 VE5)",
    "designation": "2020 VE5",
    "nasa_jpl_url": "http://ssd.jpl.nasa.gov/sbdb.cgi?sstr=54087833",
    "absolute_magnitude_h": 27.448,
    "estimated_diameter": {
        "kilometers": {
            "estimated_diameter_min": 0.008609045,
            "estimated_diameter_max": 0.0192504098
        },
        "meters": {
            "estimated_diameter_min": 8.6090449742,
            "estimated_diameter_max": 19.2504097837
        },
        "miles": {
            "estimated_diameter_min": 0.0053494109,
            "estimated_diameter_max": 0.0119616464
        },
        "feet": {
            "estimated_diameter_min": 28.2448991132,
            "estimated_diameter_max": 63.1575144348
        }
    },
    "is_potentially_hazardous_asteroid": false,
    "close_approach_data": [
        {
            "close_approach_date": "2016-11-13",
            "close_approach_date_full": "2016-Nov-13 08:12",
            "epoch_date_close_approach": 1479024720000,
            "relative_velocity": {
                "kilometers_per_second": "7.1948436188",
                "kilometers_per_hour": "25901.4370276374",
                "miles_per_hour": "16094.1456908672"
            },
            "miss_distance": {
                "astronomical": "0.0826750364",
                "lunar": "32.1605891596",
                "kilometers": "12368009.347612468",
                "miles": "7685124.6446413384"
            },
            "orbiting_body": "Earth"
        },
        {
            "close_approach_date": "2020-11-08",
            "close_approach_date_full": "2020-Nov-08 14:58",
            "epoch_date_close_approach": 1604847480000,
            "relative_velocity": {
                "kilometers_per_second": "5.8199346896",
                "kilometers_per_hour": "20951.7648827221",
                "miles_per_hour": "13018.611907267"
            },
            "miss_distance": {
                "astronomical": "0.0313354894",
                "lunar": "12.1895053766",
                "kilometers": "4687722.469647578",
                "miles": "2912815.6735814564"
            },
            "orbiting_body": "Earth"
        }
    ],
    "orbital_data": {
        "orbit_id": "1",
        "orbit_determination_date": "2020-11-15 07:42:05",
        "first_observation_date": "2020-11-14",
        "last_observation_date": "2020-11-15",
        "data_arc_in_days": 1,
        "observations_used": 16,
        "orbit_uncertainty": "8",
        "minimum_orbit_intersection": ".028882",
        "jupiter_tisserand_invariant": "5.236",
        "epoch_osculation": "2459167.5",
        "eccentricity": ".1801908860408049",
        "semi_major_axis": "1.210875368537395",
        "inclination": "8.288492945875655",
        "ascending_node_longitude": "231.62387421",
        "orbital_period": "486.6845888311502",
        "perihelion_distance": ".9926866629956554",
        "perihelion_argument": "142.5840936287746",
        "aphelion_distance": "1.429064074079134",
        "perihelion_time": "2459132.635162662233",
        "mean_anomaly": "25.7894778869825",
        "mean_motion": ".7396987869794619",
        "equinox": "J2000",
        "orbit_class": {
            "orbit_class_type": "APO",
            "orbit_class_description": "Near-Earth asteroid orbits which cross the Earth’s orbit similar to that of 1862 Apollo",
            "orbit_class_range": "a (semi-major axis) > 1.0 AU; q (perihelion) < 1.017 AU"
        }
    },
    "is_sentry_object": false
}